[{"OBJECT_NAME":"STARLINK-34102","OBJECT_ID":"2025-092C","EPOCH":"2025-09-28T14:46:33.900960","MEAN_MOTION":15.27611352,"ECCENTRICITY":0.00012299,"INCLINATION":43.0027,"RA_OF_ASC_NODE":8.1953,"ARG_OF_PERICENTER":260.8835,"MEAN_ANOMALY":99.1878,"EPHEMERIS_TYPE":0,"CLASSIFICATION_TYPE":"U","NORAD_CAT_ID":63806,"ELEMENT_SET_NO":999,"REV_AT_EPOCH":2387,"BSTAR":0.001417292,"MEAN_MOTION_DOT":0.00038982,"MEAN_MOTION_DDOT":0},{"OBJECT_NAME":"STARLINK-34109","OBJECT_ID":"2025-092D","EPOCH":"2025-09-29T07:01:12.925344","MEAN_MOTION":15.27607515,"ECCENTRICITY":0.00011645,"INCLINATION":42.9976,"RA_OF_ASC_NODE":3.8048,"ARG_OF_PERICENTER":178.4808,"MEAN_ANOMALY":181.6047,"EPHEMERIS_TYPE":0,"CLASSIFICATION_TYPE":"U","NORAD_CAT_ID":63807,"ELEMENT_SET_NO":999,"REV_AT_EPOCH":2393,"BSTAR":0.0019893389,"MEAN_MOTION_DOT":0.00054935,"MEAN_MOTION_DDOT":0},{"OBJECT_NAME":"STARLINK-34091","OBJECT_ID":"2025-092E","EPOCH":"2025-09-29T06:04:04.166400","MEAN_MOTION":15.27603239,"ECCENTRICITY":3.408e-5,"INCLINATION":42.999,"RA_OF_ASC_NODE":4.3738,"ARG_OF_PERICENTER":114.7696,"MEAN_ANOMALY":245.3191,"EPHEMERIS_TYPE":0,"CLASSIFICATION_TYPE":"U","NORAD_CAT_ID":63808,"ELEMENT_SET_NO":999,"REV_AT_EPOCH":2397,"BSTAR":0.0016055096,"MEAN_MOTION_DOT":0.00044215,"MEAN_MOTION_DDOT":0},{"OBJECT_NAME":"STARLINK-34095","OBJECT_ID":"2025-092F","EPOCH":"2025-09-29T06:35:31.894080","MEAN_MOTION":15.2754845,"ECCENTRICITY":0.00015189,"INCLINATION":42.9998,"RA_OF_ASC_NODE":4.5339,"ARG_OF_PERICENTER":256.1914,"MEAN_ANOMALY":103.8768,"EPHEMERIS_TYPE":0,"CLASSIFICATION_TYPE":"U","NORAD_CAT_ID":63809,"ELEMENT_SET_NO":999,"REV_AT_EPOCH":2392,"BSTAR":-0.00097661272,"MEAN_MOTION_DOT":-0.00027013,"MEAN_MOTION_DDOT":0},{"OBJECT_NAME":"STARLINK-34127","OBJECT_ID":"2025-092G","EPOCH":"2025-09-29T05:38:10.045536","MEAN_MOTION":15.27621194,"ECCENTRICITY":3.551e-5,"INCLINATION":42.9999,"RA_OF_ASC_NODE":4.2375,"ARG_OF_PERICENTER":87.8049,"MEAN_ANOMALY":272.2843,"EPHEMERIS_TYPE":0,"CLASSIFICATION_TYPE":"U","NORAD_CAT_ID":63810,"ELEMENT_SET_NO":999,"REV_AT_EPOCH":2392,"BSTAR":0.0019935489,"MEAN_MOTION_DOT":0.00055076,"MEAN_MOTION_DDOT":0},{"OBJECT_NAME":"STARLINK-34110","OBJECT_ID":"2025-092H","EPOCH":"2025-09-28T14:33:36.364032","MEAN_MOTION":15.27617888,"ECCENTRICITY":0.00013067,"INCLINATION":43.0033,"RA_OF_ASC_NODE":8.1246,"ARG_OF_PERICENTER":243.7655,"MEAN_ANOMALY":116.3063,"EPHEMERIS_TYPE":0,"CLASSIFICATION_TYPE":"U","NORAD_CAT_ID":63811,"ELEMENT_SET_NO":999,"REV_AT_EPOCH":2387,"BSTAR":0.0018497049,"MEAN_MOTION_DOT":0.0005105,"MEAN_MOTION_DDOT":0},{"OBJECT_NAME":"STARLINK-34101","OBJECT_ID":"2025-092J","EPOCH":"2025-09-29T06:42:43.001568","MEAN_MOTION":15.27618116,"ECCENTRICITY":6.081e-5,"INCLINATION":42.9956,"RA_OF_ASC_NODE":3.7027,"ARG_OF_PERICENTER":176.2987,"MEAN_ANOMALY":183.787,"EPHEMERIS_TYPE":0,"CLASSIFICATION_TYPE":"U","NORAD_CAT_ID":63812,"ELEMENT_SET_NO":999,"REV_AT_EPOCH":2387,"BSTAR":0.0019491347,"MEAN_MOTION_DOT":0.00053829,"MEAN_MOTION_DDOT":0},{"OBJECT_NAME":"STARLINK-34065","OBJECT_ID":"2025-092K","EPOCH":"2025-09-29T06:48:57.362400","MEAN_MOTION":15.27609635,"ECCENTRICITY":9.497e-5,"INCLINATION":42.994,"RA_OF_ASC_NODE":0.23,"ARG_OF_PERICENTER":155.8945,"MEAN_ANOMALY":204.1951,"EPHEMERIS_TYPE":0,"CLASSIFICATION_TYPE":"U","NORAD_CAT_ID":63813,"ELEMENT_SET_NO":999,"REV_AT_EPOCH":2391,"BSTAR":0.0016803538,"MEAN_MOTION_DOT":0.0004631,"MEAN_MOTION_DDOT":0},{"OBJECT_NAME":"STARLINK-34057","OBJECT_ID":"2025-092L","EPOCH":"2025-09-29T06:53:49.057440","MEAN_MOTION":15.27614018,"ECCENTRICITY":0.0001973,"INCLINATION":42.993,"RA_OF_ASC_NODE":3.763,"ARG_OF_PERICENTER":145.6366,"MEAN_ANOMALY":214.4613,"EPHEMERIS_TYPE":0,"CLASSIFICATION_TYPE":"U","NORAD_CAT_ID":63814,"ELEMENT_SET_NO":999,"REV_AT_EPOCH":2393,"BSTAR":0.0017107668,"MEAN_MOTION_DOT":0.00047166,"MEAN_MOTION_DDOT":0},{"OBJECT_NAME":"STARLINK-34060","OBJECT_ID":"2025-092M","EPOCH":"2025-09-28T15:14:09.191904","MEAN_MOTION":15.27579148,"ECCENTRICITY":9.387e-5,"INCLINATION":43.0013,"RA_OF_ASC_NODE":7.4705,"ARG_OF_PERICENTER":58.8811,"MEAN_ANOMALY":301.2133,"EPHEMERIS_TYPE":0,"CLASSIFICATION_TYPE":"U","NORAD_CAT_ID":63815,"ELEMENT_SET_NO":999,"REV_AT_EPOCH":2377,"BSTAR":0.0016177975,"MEAN_MOTION_DOT":0.00044524,"MEAN_MOTION_DDOT":0},{"OBJECT_NAME":"STARLINK-34048","OBJECT_ID":"2025-092N","EPOCH":"2025-09-29T06:26:16.340352","MEAN_MOTION":15.2762069,"ECCENTRICITY":0.00010172,"INCLINATION":42.9989,"RA_OF_ASC_NODE":4.4893,"ARG_OF_PERICENTER":255.3247,"MEAN_ANOMALY":104.7492,"EPHEMERIS_TYPE":0,"CLASSIFICATION_TYPE":"U","NORAD_CAT_ID":63816,"ELEMENT_SET_NO":999,"REV_AT_EPOCH":2397,"BSTAR":0.0021159336,"MEAN_MOTION_DOT":0.00058499,"MEAN_MOTION_DDOT":0},{"OBJECT_NAME":"STARLINK-33959","OBJECT_ID":"2025-092P","EPOCH":"2025-09-29T06:39:00.915552","MEAN_MOTION":15.27627199,"ECCENTRICITY":0.00010188,"INCLINATION":42.9985,"RA_OF_ASC_NODE":3.6865,"ARG_OF_PERICENTER":248.046,"MEAN_ANOMALY":112.0283,"EPHEMERIS_TYPE":0,"CLASSIFICATION_TYPE":"U","NORAD_CAT_ID":63817,"ELEMENT_SET_NO":999,"REV_AT_EPOCH":2398,"BSTAR":0.0019267203,"MEAN_MOTION_DOT":0.00053217,"MEAN_MOTION_DDOT":0},{"OBJECT_NAME":"STARLINK-34058","OBJECT_ID":"2025-092Q","EPOCH":"2025-09-29T06:48:16.221312","MEAN_MOTION":15.27617639,"ECCENTRICITY":0.00019533,"INCLINATION":42.9995,"RA_OF_ASC_NODE":3.738,"ARG_OF_PERICENTER":134.8099,"MEAN_ANOMALY":225.2911,"EPHEMERIS_TYPE":0,"CLASSIFICATION_TYPE":"U","NORAD_CAT_ID":63818,"ELEMENT_SET_NO":999,"REV_AT_EPOCH":2398,"BSTAR":0.0015877245,"MEAN_MOTION_DOT":0.00043739,"MEAN_MOTION_DDOT":0},{"OBJECT_NAME":"STARLINK-34055","OBJECT_ID":"2025-092R","EPOCH":"2025-09-28T06:48:23.321664","MEAN_MOTION":15.27625458,"ECCENTRICITY":0.00040608,"INCLINATION":43.004,"RA_OF_ASC_NODE":9.9796,"ARG_OF_PERICENTER":302.5767,"MEAN_ANOMALY":57.4693,"EPHEMERIS_TYPE":0,"CLASSIFICATION_TYPE":"U","NORAD_CAT_ID":63819,"ELEMENT_SET_NO":999,"REV_AT_EPOCH":2377,"BSTAR":0.0018928595,"MEAN_MOTION_DOT":0.00052276,"MEAN_MOTION_DDOT":0},{"OBJECT_NAME":"STARLINK-33794","OBJECT_ID":"2025-092S","EPOCH":"2025-09-29T06:11:29.007168","MEAN_MOTION":15.27633312,"ECCENTRICITY":0.00011495,"INCLINATION":43.0042,"RA_OF_ASC_NODE":4.4124,"ARG_OF_PERICENTER":180.4977,"MEAN_ANOMALY":179.5873,"EPHEMERIS_TYPE":0,"CLASSIFICATION_TYPE":"U","NORAD_CAT_ID":63820,"ELEMENT_SET_NO":999,"REV_AT_EPOCH":2392,"BSTAR":0.0022967266,"MEAN_MOTION_DOT":0.00063589,"MEAN_MOTION_DDOT":0},{"OBJECT_NAME":"STARLINK-34047","OBJECT_ID":"2025-092T","EPOCH":"2025-09-29T06:05:55.806432","MEAN_MOTION":15.27604127,"ECCENTRICITY":0.0001056,"INCLINATION":43.0068,"RA_OF_ASC_NODE":4.3825,"ARG_OF_PERICENTER":237.8573,"MEAN_ANOMALY":122.2177,"EPHEMERIS_TYPE":0,"CLASSIFICATION_TYPE":"U","NORAD_CAT_ID":63821,"ELEMENT_SET_NO":999,"REV_AT_EPOCH":2397,"BSTAR":0.0017601108,"MEAN_MOTION_DOT":0.00048527,"MEAN_MOTION_DDOT":0}]
