STARLINK-34102          
1 63806U 25092C   25271.61567015  .00038982  00000+0  14173-2 0  9996
2 63806  43.0027   8.1953 0001229 260.8835  99.1878 15.27611352 23878
STARLINK-34109          
1 63807U 25092D   25272.29251071  .00054935  00000+0  19893-2 0  9994
2 63807  42.9976   3.8048 0001164 178.4808 181.6047 15.27607515 23937
STARLINK-34091          
1 63808U 25092E   25272.25282600  .00044215  00000+0  16055-2 0  9990
2 63808  42.9990   4.3738 0000340 114.7696 245.3191 15.27603239 23970
STARLINK-34095          
1 63809U 25092F   25272.27467470 -.00027013  00000+0 -97661-3 0  9995
2 63809  42.9998   4.5339 0001518 256.1914 103.8768 15.27548450 23926
STARLINK-34127          
1 63810U 25092G   25272.23483849  .00055076  00000+0  19935-2 0  9996
2 63810  42.9999   4.2375 0000355  87.8049 272.2843 15.27621194 23924
STARLINK-34110          
1 63811U 25092H   25271.60667088  .00051050  00000+0  18497-2 0  9996
2 63811  43.0033   8.1246 0001306 243.7655 116.3063 15.27617888 23870
STARLINK-34101          
1 63812U 25092J   25272.27966437  .00053829  00000+0  19491-2 0  9992
2 63812  42.9956   3.7027 0000608 176.2987 183.7870 15.27618116 23872
STARLINK-34065          
1 63813U 25092K   25272.28399725  .00046310  00000+0  16804-2 0  9996
2 63813  42.9940   0.2300 0000949 155.8945 204.1951 15.27609635 23916
STARLINK-34057          
1 63814U 25092L   25272.28737335  .00047166  00000+0  17108-2 0  9998
2 63814  42.9930   3.7630 0001973 145.6366 214.4613 15.27614018 23934
STARLINK-34060          
1 63815U 25092M   25271.63482861  .00044524  00000+0  16178-2 0  9999
2 63815  43.0013   7.4705 0000938  58.8811 301.2133 15.27579148 23771
STARLINK-34048          
1 63816U 25092N   25272.26824468  .00058499  00000+0  21159-2 0  9994
2 63816  42.9989   4.4893 0001017 255.3247 104.7492 15.27620690 23978
STARLINK-33959          
1 63817U 25092P   25272.27709393  .00053217  00000+0  19267-2 0  9995
2 63817  42.9985   3.6865 0001018 248.0460 112.0283 15.27627199 23984
STARLINK-34058          
1 63818U 25092Q   25272.28352108  .00043739  00000+0  15877-2 0  9996
2 63818  42.9995   3.7380 0001953 134.8099 225.2911 15.27617639 23980
STARLINK-34055          
1 63819U 25092R   25271.28360326  .00052276  00000+0  18929-2 0  9994
2 63819  43.0040   9.9796 0004060 302.5767  57.4693 15.27625458 23778
STARLINK-33794          
1 63820U 25092S   25272.25797462  .00063589  00000+0  22967-2 0  9995
2 63820  43.0042   4.4124 0001149 180.4977 179.5873 15.27633312 23929
STARLINK-34047          
1 63821U 25092T   25272.25411813  .00048527  00000+0  17601-2 0  9993
2 63821  43.0068   4.3825 0001056 237.8573 122.2177 15.27604127 23970
